FENGYUN 1C DEB          
1 33642U 99025DEB 17346.10696777  .00033993  00000-0  10310-2 0  9991
2 33642  99.2698  84.0596 0062063 289.7335  69.7213 15.32134503525455
